STARLINK-1963
1 27564C 21009S   21325.16615012 -.00011295  00000-0 -75684-3 0  3259
2 27564  53.0544 217.4856 0002142  70.6162 134.7475 15.06406045    16
